[{"OBJECT_ID":"2014-062B","OBJECT_NAME":"ARSAT 1","NORAD_CAT_ID":"40272","OBJECT_TYPE":"PAYLOAD","PERIOD":"1436.112","INCLINATION":"0.0377","APOGEE":"35792.226","PERIGEE":"35781.566","ECCENTRICITY":"0.0001264","MEAN_MOTION":"1.00270717","TLE_LINE1":"1 40272U 14062B   16239.27101584 -.00000288  00000-0  00000+0 0  9995","TLE_LINE2":"2 40272   0.0377 265.5387 0001264 274.5490 180.6080  1.00270717  6974","LAUNCH_DATE":"2014-10-16","LAUNCH_SITE":"FRENCH GUIANA","OWNER":"ARGENTINA","ORBIT_TYPE":"Geosynchronous","OPERATIONAL_STATUS":"Operational","satInfo":{"lng":-89.3012712886152,"lat":-1.2210692919713506,"elevation":-9.761774677710191,"azimuth":44.30127128861519,"range":42789.595837153225,"height":35801.487044563415,"velocity":3.0741128337239485},"x":-259,"y":-5,"dx":0.03748823519392404,"dy":-3.0738842441914316,"maxAlt":256,"minAlt":256},{"OBJECT_ID":"2014-064A","OBJECT_NAME":"EXPRESS AM-6","NORAD_CAT_ID":"40277","OBJECT_TYPE":"PAYLOAD","PERIOD":"1435.856","INCLINATION":"0.0254","APOGEE":"35788.100","PERIGEE":"35775.662","ECCENTRICITY":"0.0001475","MEAN_MOTION":"1.00288608","TLE_LINE1":"1 40277U 14064A   16238.65638664  .00000069  00000-0  00000+0 0  9993","TLE_LINE2":"2 40277   0.0254 242.6845 0001475 113.7513 267.2092  1.00288608  6740","LAUNCH_DATE":"2014-10-21","LAUNCH_SITE":"TYURATAM MISSILE AND SPACE COMPLEX","OWNER":"COMMONWEALTH OF INDEPENDENT STATES","ORBIT_TYPE":"Geosynchronous","OPERATIONAL_STATUS":"Operational","satInfo":{"lng":98.09598651181085,"lat":1.7598835771077974,"elevation":-6.850827770412691,"azimuth":216.90401348818915,"range":42448.74724848929,"height":35787.39859984355,"velocity":3.074678234424228},"x":254,"y":35,"dx":-0.43301272179786127,"dy":3.0440345313421293,"maxAlt":256,"minAlt":256},{"OBJECT_ID":"2014-064B","OBJECT_NAME":"BREEZE-M R/B","NORAD_CAT_ID":"40278","OBJECT_TYPE":"ROCKET BODY","PERIOD":"1512.243","INCLINATION":"0.47","APOGEE":"39734.921","PERIGEE":"34793.466","ECCENTRICITY":"0.0566131","MEAN_MOTION":"0.95222787","TLE_LINE1":"1 40278U 14064B   16238.93816758 -.00000155  00000-0  00000+0 0  9994","TLE_LINE2":"2 40278   0.4700  80.6914 0566131 145.2013 129.3295  0.95222787  6436","LAUNCH_DATE":"2014-10-21","LAUNCH_SITE":"TYURATAM MISSILE AND SPACE COMPLEX","OWNER":"COMMONWEALTH OF INDEPENDENT STATES","ORBIT_TYPE":"Unclassified","OPERATIONAL_STATUS":"N/A, derelict rocket body","satInfo":{"lng":3.8470149534341282,"lat":2.2399293544187944,"elevation":-6.43626307361023,"azimuth":311.15298504656585,"range":42120.84625730518,"height":35509.20137137004,"velocity":3.146245710082481},"x":16,"y":-257,"dx":3.1391564328249766,"dy":0.2110899298071409,"maxAlt":285,"minAlt":249},{"OBJECT_ID":"2014-078A","OBJECT_NAME":"GSAT 16","NORAD_CAT_ID":"40332","OBJECT_TYPE":"PAYLOAD","PERIOD":"1436.100","INCLINATION":"0.0426","APOGEE":"35811.398","PERIGEE":"35761.930","ECCENTRICITY":"0.0005866","MEAN_MOTION":"1.00271543","TLE_LINE1":"1 40332U 14078A   16238.91782999 +.00000057 +00000-0 +00000-0 0  9998","TLE_LINE2":"2 40332 000.0426 272.8159 0005866 193.3721 253.8697 01.00271543006213","LAUNCH_DATE":"2014-12-06","LAUNCH_SITE":"FRENCH GUIANA","OWNER":"INDIA","ORBIT_TYPE":"Geosynchronous","OPERATIONAL_STATUS":"Operational","satInfo":{"lng":94.89408252982093,"lat":1.1240499030588358,"elevation":-7.470145133733707,"azimuth":220.10591747017907,"range":42538.42383701154,"height":35807.36186635597,"velocity":3.0731076461372435},"x":256,"y":21,"dx":-0.26217916964126203,"dy":3.0619034419382674,"maxAlt":257,"minAlt":256},{"OBJECT_ID":"2014-082B","OBJECT_NAME":"BREEZE-M R/B","NORAD_CAT_ID":"40346","OBJECT_TYPE":"ROCKET BODY","PERIOD":"1293.391","INCLINATION":"1.4397","APOGEE":"35376.612","PERIGEE":"30513.149","ECCENTRICITY":"0.0618399","MEAN_MOTION":"1.1133521","TLE_LINE1":"1 40346U 14082B   16237.80401350 -.00000141  00000-0  00000+0 0  9998","TLE_LINE2":"2 40346   1.4397  99.5316 0618399  61.7743 304.6604  1.11335210  6837","LAUNCH_DATE":"2014-12-15","LAUNCH_SITE":"TYURATAM MISSILE AND SPACE COMPLEX","OWNER":"COMMONWEALTH OF INDEPENDENT STATES","ORBIT_TYPE":"Unclassified","OPERATIONAL_STATUS":"N/A, derelict rocket body","satInfo":{"lng":-3.742595461991422,"lat":3.3408657004282816,"elevation":-6.508829439660409,"azimuth":318.7425954619914,"range":37113.582793851776,"height":30558.92839841032,"velocity":3.3832618532876153},"x":-16,"y":-221,"dx":3.376046598039384,"dy":-0.2208396155082992,"maxAlt":253,"minAlt":218},{"OBJECT_ID":"2014-085A","OBJECT_NAME":"DUMMY SAT 2/BREEZE-M","NORAD_CAT_ID":"40355","OBJECT_TYPE":"PAYLOAD","PERIOD":"1530.920","INCLINATION":"1.5239","APOGEE":"39081.379","PERIGEE":"36164.223","ECCENTRICITY":"0.0331488","MEAN_MOTION":"0.94061063","TLE_LINE1":"1 40355U 14085A   16238.21435198 -.00000166 +00000-0 +00000-0 0  9992","TLE_LINE2":"2 40355 001.5239 092.1985 0331488 260.4590 096.2128 00.94061063005514","LAUNCH_DATE":"2014-12-23","LAUNCH_SITE":"PLESETSK MISSILE AND SPACE COMPLEX","OWNER":"COMMONWEALTH OF INDEPENDENT STATES","ORBIT_TYPE":"Unclassified","OPERATIONAL_STATUS":"Nonoperational","satInfo":{"lng":-143.13790458200415,"lat":-1.9980098747793051,"elevation":-10.398876718314861,"azimuth":98.13790458200415,"range":43476.090556374795,"height":36409.84669695028,"velocity":3.093982419966537},"x":-159,"y":208,"dx":-2.475438706049114,"dy":-1.8560523774009932,"maxAlt":280,"minAlt":259},{"OBJECT_ID":"2014-089A","OBJECT_NAME":"ASTRA 2G","NORAD_CAT_ID":"40364","OBJECT_TYPE":"PAYLOAD","PERIOD":"1436.140","INCLINATION":"0.0509","APOGEE":"35799.957","PERIGEE":"35774.961","ECCENTRICITY":"0.0002964","MEAN_MOTION":"1.00268709","TLE_LINE1":"1 40364U 14089A   16238.99210362  .00000122  00000-0  00000+0 0  9995","TLE_LINE2":"2 40364   0.0509 307.2893 0002964 146.5807 266.1570  1.00268709  6104","LAUNCH_DATE":"2014-12-27","LAUNCH_SITE":"TYURATAM MISSILE AND SPACE COMPLEX","OWNER":"SOCIÉTÉ EUROPÉENNE DES SATELLITES","ORBIT_TYPE":"Geosynchronous","OPERATIONAL_STATUS":"Operational","satInfo":{"lng":69.3720772125008,"lat":-0.9639248344926482,"elevation":-9.51742453544356,"azimuth":245.62792278749916,"range":42731.011253838435,"height":35770.655992132335,"velocity":3.074885994928809},"x":240,"y":-92,"dx":1.083275540958851,"dy":2.8777487701621283,"maxAlt":256,"minAlt":256},{"OBJECT_ID":"2014-090A","OBJECT_NAME":"FENGYUN 2G","NORAD_CAT_ID":"40367","OBJECT_TYPE":"PAYLOAD","PERIOD":"1436.040","INCLINATION":"1.0482","APOGEE":"35795.913","PERIGEE":"35775.084","ECCENTRICITY":"0.000247","MEAN_MOTION":"1.00275701","TLE_LINE1":"1 40367U 14090A   16238.86176439 -.00000357  00000-0  00000+0 0  9993","TLE_LINE2":"2 40367   1.0482 270.2868 0002470 321.8385 157.2565  1.00275701  6126","LAUNCH_DATE":"2014-12-31","LAUNCH_SITE":"Xichang Space Center, China","OWNER":"PEOPLES REPUBLIC OF CHINA","ORBIT_TYPE":"Geosynchronous","OPERATIONAL_STATUS":"Operational","satInfo":{"lng":49.73387249529699,"lat":-0.298868993421372,"elevation":-8.8660093998395,"azimuth":265.266127504703,"range":42672.265550625845,"height":35784.83088482076,"velocity":3.075147413381238},"x":195,"y":-168,"dx":1.98758704973904,"dy":2.34649298608263,"maxAlt":256,"minAlt":256},{"OBJECT_ID":"2014-090C","OBJECT_NAME":"FENGYUN 2G AKM","NORAD_CAT_ID":"40369","OBJECT_TYPE":"ROCKET BODY","PERIOD":"1446.060","INCLINATION":"1.1051","APOGEE":"36172.100","PERIGEE":"35790.678","ECCENTRICITY":"0.0045022","MEAN_MOTION":"0.99580923","TLE_LINE1":"1 40369U 14090C   16237.65774933  .00000089  00000-0  00000+0 0  9995","TLE_LINE2":"2 40369   1.1051 270.9330 0045022 264.7656  94.1940  0.99580923  6003","LAUNCH_DATE":"2014-12-31","LAUNCH_SITE":"Xichang Space Center, China","OWNER":"PEOPLES REPUBLIC OF CHINA","ORBIT_TYPE":"Geosynchronous","OPERATIONAL_STATUS":"N/A, derelict rocket body","satInfo":{"lng":95.56542525198655,"lat":0.6446375837068397,"elevation":-7.905780934076714,"azimuth":219.43457474801343,"range":42757.70087588838,"height":35975.85516208012,"velocity":3.067994885482702},"x":256,"y":24,"dx":-0.29754125815453947,"dy":3.0535326782341516,"maxAlt":259,"minAlt":256},{"OBJECT_ID":"2015-005A","OBJECT_NAME":"INMARSAT 5-F2","NORAD_CAT_ID":"40384","OBJECT_TYPE":"PAYLOAD","PERIOD":"1436.121","INCLINATION":"0.0187","APOGEE":"35789.702","PERIGEE":"35784.456","ECCENTRICITY":"6.22e-05","MEAN_MOTION":"1.00270064","TLE_LINE1":"1 40384U 15005A   16239.21276200 -.00000314  00000-0  00000+0 0  9999","TLE_LINE2":"2 40384   0.0187 134.6307 0000622 156.5994  65.2438  1.00270064  5755","LAUNCH_DATE":"2015-02-01","LAUNCH_SITE":"TYURATAM MISSILE AND SPACE COMPLEX","OWNER":"INTERNATIONAL MARITIME SATELLITE ORGANIZATION (INMARSAT)","ORBIT_TYPE":"Geosynchronous","OPERATIONAL_STATUS":"Operational","satInfo":{"lng":-60.59959698406123,"lat":0.36423663230223735,"elevation":-8.215557864975889,"azimuth":15.599596984061229,"range":42612.830487013845,"height":35798.2292183051,"velocity":3.0741815630639593},"x":-226,"y":-128,"dx":1.5091461073920995,"dy":-2.6782588204327156,"maxAlt":256,"minAlt":256},{"OBJECT_ID":"2015-010A","OBJECT_NAME":"ABS 3A","NORAD_CAT_ID":"40424","OBJECT_TYPE":"PAYLOAD","PERIOD":"1436.087","INCLINATION":"0.0151","APOGEE":"35796.211","PERIGEE":"35776.630","ECCENTRICITY":"0.0002322","MEAN_MOTION":"1.00272414","TLE_LINE1":"1 40424U 15010A   16238.08118883 -.00000052  00000-0  00000+0 0  9995","TLE_LINE2":"2 40424   0.0151 109.2356 0002322 323.3193 287.4653  1.00272414  5485","LAUNCH_DATE":"2015-03-02","LAUNCH_SITE":"AIR FORCE EASTERN TEST RANGE","OWNER":"PEOPLES REPUBLIC OF CHINA","ORBIT_TYPE":"Geosynchronous","OPERATIONAL_STATUS":"Operational","satInfo":{"lng":27.22260728416423,"lat":1.8427190872489168,"elevation":-6.764421111688716,"azimuth":287.7773927158358,"range":42464.707967159484,"height":35812.763828367686,"velocity":3.073530343953104},"x":117,"y":-231,"dx":2.7330936636599876,"dy":1.4059828593770667,"maxAlt":256,"minAlt":256}]